STARLINK-2222           
1 48572U 21041V   25257.13970647 -.00000744  00000+0 -31099-4 0  9994
2 48572  53.0502 214.1789 0001380  86.4975 273.6171 15.06388827238453
STARLINK-2224           
1 48573U 21041W   25257.25119968  .00000908  00000+0  79875-4 0  9993
2 48573  53.0535 203.6822 0001333  88.4935 271.6207 15.06397728238602
STARLINK-2225           
1 48574U 21041X   25256.95541938 -.00003055  00000+0 -18620-3 0  9994
2 48574  53.0506 175.0956 0002300  13.4560 346.6489 15.06409452238982
STARLINK-2227           
1 48575U 21041Y   25257.03744108 -.00004075  00000+0 -25465-3 0  9997
2 48575  53.0530 164.9612 0001109  86.2776 273.8340 15.06424147239143
STARLINK-2228           
1 48576U 21041Z   25257.17057674  .00003464  00000+0  25126-3 0  9991
2 48576  53.0529 179.0452 0001398  86.5185 273.5964 15.06405772238958
STARLINK-2231           
1 48577U 21041AA  25256.60620280 -.00000100  00000+0  12169-4 0  9997
2 48577  53.0472 206.8472 0002039  96.1267 263.9954 15.06394486238500
STARLINK-2232           
1 48578U 21041AB  25256.14549644  .00000838  00000+0  75184-4 0  9994
2 48578  53.0548 209.1560 0001660  92.3390 267.7790 15.06397092238431
STARLINK-2234           
1 48580U 21041AD  25257.20006637  .00005348  00000+0  37770-3 0  9994
2 48580  53.0535 178.9204 0001380  79.0084 281.1061 15.06392922238954
STARLINK-2235           
1 48581U 21041AE  25257.16047127 -.00004306  00000+0 -27054-3 0  9998
2 48581  53.0549 169.0978 0001188  91.9447 268.1678 15.06375496239093
STARLINK-2236           
1 48582U 21041AF  25257.14202579  .00000960  00000+0  83360-4 0  9994
2 48582  53.0562 169.3388 0001551 103.8457 256.2705 15.06398605239080
STARLINK-2237           
1 48583U 21041AG  25257.14707225  .00000530  00000+0  54463-4 0  9998
2 48583  53.0621 214.1502 0001075  89.4448 270.6664 15.06400784238450
STARLINK-2238           
1 48584U 21041AH  25257.25396086  .00000461  00000+0  49851-4 0  9998
2 48584  53.0529 213.6665 0001577  87.8660 272.2510 15.06399320238469
STARLINK-2241           
1 48586U 21041AK  25257.25764743  .00000301  00000+0  39103-4 0  9991
2 48586  53.0515 213.6498 0001561  90.9620 269.1548 15.06397532238463
STARLINK-2245           
1 48589U 21041AN  25257.23645357  .00001381  00000+0  11160-3 0  9992
2 48589  53.0544 203.7457 0001441  90.6785 269.4369 15.06403439238603
STARLINK-2249           
1 48592U 21041AR  25257.18396075 -.00000125  00000+0  10476-4 0  9996
2 48592  53.0483 214.2157 0001276  83.9147 276.1987 15.06399200238450
STARLINK-2250           
1 48593U 21041AS  25257.16918919  .00001670  00000+0  13094-3 0  9995
2 48593  53.0551 214.0520 0001466  87.0869 273.0288 15.06406969238457
