[{"OBJECT_NAME":"STARLINK-2222","OBJECT_ID":"2021-041V","EPOCH":"2025-09-14T03:21:10.639008","MEAN_MOTION":15.06388827,"ECCENTRICITY":0.00013804,"INCLINATION":53.0502,"RA_OF_ASC_NODE":214.1789,"ARG_OF_PERICENTER":86.4975,"MEAN_ANOMALY":273.6171,"EPHEMERIS_TYPE":0,"CLASSIFICATION_TYPE":"U","NORAD_CAT_ID":48572,"ELEMENT_SET_NO":999,"REV_AT_EPOCH":23845,"BSTAR":-3.1099072e-5,"MEAN_MOTION_DOT":-7.44e-6,"MEAN_MOTION_DDOT":0},{"OBJECT_NAME":"STARLINK-2224","OBJECT_ID":"2021-041W","EPOCH":"2025-09-14T06:01:43.652352","MEAN_MOTION":15.06397728,"ECCENTRICITY":0.00013333,"INCLINATION":53.0535,"RA_OF_ASC_NODE":203.6822,"ARG_OF_PERICENTER":88.4935,"MEAN_ANOMALY":271.6207,"EPHEMERIS_TYPE":0,"CLASSIFICATION_TYPE":"U","NORAD_CAT_ID":48573,"ELEMENT_SET_NO":999,"REV_AT_EPOCH":23860,"BSTAR":7.9875309e-5,"MEAN_MOTION_DOT":9.08e-6,"MEAN_MOTION_DDOT":0},{"OBJECT_NAME":"STARLINK-2225","OBJECT_ID":"2021-041X","EPOCH":"2025-09-13T22:55:48.234432","MEAN_MOTION":15.06409452,"ECCENTRICITY":0.00023001,"INCLINATION":53.0506,"RA_OF_ASC_NODE":175.0956,"ARG_OF_PERICENTER":13.456,"MEAN_ANOMALY":346.6489,"EPHEMERIS_TYPE":0,"CLASSIFICATION_TYPE":"U","NORAD_CAT_ID":48574,"ELEMENT_SET_NO":999,"REV_AT_EPOCH":23898,"BSTAR":-0.00018620192,"MEAN_MOTION_DOT":-3.055e-5,"MEAN_MOTION_DDOT":0},{"OBJECT_NAME":"STARLINK-2227","OBJECT_ID":"2021-041Y","EPOCH":"2025-09-14T00:53:54.909312","MEAN_MOTION":15.06424147,"ECCENTRICITY":0.00011096,"INCLINATION":53.053,"RA_OF_ASC_NODE":164.9612,"ARG_OF_PERICENTER":86.2776,"MEAN_ANOMALY":273.834,"EPHEMERIS_TYPE":0,"CLASSIFICATION_TYPE":"U","NORAD_CAT_ID":48575,"ELEMENT_SET_NO":999,"REV_AT_EPOCH":23914,"BSTAR":-0.00025464513,"MEAN_MOTION_DOT":-4.075e-5,"MEAN_MOTION_DDOT":0},{"OBJECT_NAME":"STARLINK-2228","OBJECT_ID":"2021-041Z","EPOCH":"2025-09-14T04:05:37.830336","MEAN_MOTION":15.06405772,"ECCENTRICITY":0.00013982,"INCLINATION":53.0529,"RA_OF_ASC_NODE":179.0452,"ARG_OF_PERICENTER":86.5185,"MEAN_ANOMALY":273.5964,"EPHEMERIS_TYPE":0,"CLASSIFICATION_TYPE":"U","NORAD_CAT_ID":48576,"ELEMENT_SET_NO":999,"REV_AT_EPOCH":23895,"BSTAR":0.00025125737,"MEAN_MOTION_DOT":3.464e-5,"MEAN_MOTION_DDOT":0},{"OBJECT_NAME":"STARLINK-2231","OBJECT_ID":"2021-041AA","EPOCH":"2025-09-13T14:32:55.921920","MEAN_MOTION":15.06394486,"ECCENTRICITY":0.00020397,"INCLINATION":53.0472,"RA_OF_ASC_NODE":206.8472,"ARG_OF_PERICENTER":96.1267,"MEAN_ANOMALY":263.9954,"EPHEMERIS_TYPE":0,"CLASSIFICATION_TYPE":"U","NORAD_CAT_ID":48577,"ELEMENT_SET_NO":999,"REV_AT_EPOCH":23850,"BSTAR":1.2169423e-5,"MEAN_MOTION_DOT":-1.0e-6,"MEAN_MOTION_DDOT":0},{"OBJECT_NAME":"STARLINK-2232","OBJECT_ID":"2021-041AB","EPOCH":"2025-09-13T03:29:30.892416","MEAN_MOTION":15.06397092,"ECCENTRICITY":0.00016601,"INCLINATION":53.0548,"RA_OF_ASC_NODE":209.156,"ARG_OF_PERICENTER":92.339,"MEAN_ANOMALY":267.779,"EPHEMERIS_TYPE":0,"CLASSIFICATION_TYPE":"U","NORAD_CAT_ID":48578,"ELEMENT_SET_NO":999,"REV_AT_EPOCH":23843,"BSTAR":7.5184085e-5,"MEAN_MOTION_DOT":8.38e-6,"MEAN_MOTION_DDOT":0},{"OBJECT_NAME":"STARLINK-2234","OBJECT_ID":"2021-041AD","EPOCH":"2025-09-14T04:48:05.734368","MEAN_MOTION":15.06392922,"ECCENTRICITY":0.00013802,"INCLINATION":53.0535,"RA_OF_ASC_NODE":178.9204,"ARG_OF_PERICENTER":79.0084,"MEAN_ANOMALY":281.1061,"EPHEMERIS_TYPE":0,"CLASSIFICATION_TYPE":"U","NORAD_CAT_ID":48580,"ELEMENT_SET_NO":999,"REV_AT_EPOCH":23895,"BSTAR":0.00037769585,"MEAN_MOTION_DOT":5.348e-5,"MEAN_MOTION_DDOT":0},{"OBJECT_NAME":"STARLINK-2235","OBJECT_ID":"2021-041AE","EPOCH":"2025-09-14T03:51:04.717728","MEAN_MOTION":15.06375496,"ECCENTRICITY":0.00011882,"INCLINATION":53.0549,"RA_OF_ASC_NODE":169.0978,"ARG_OF_PERICENTER":91.9447,"MEAN_ANOMALY":268.1678,"EPHEMERIS_TYPE":0,"CLASSIFICATION_TYPE":"U","NORAD_CAT_ID":48581,"ELEMENT_SET_NO":999,"REV_AT_EPOCH":23909,"BSTAR":-0.00027053731,"MEAN_MOTION_DOT":-4.306e-5,"MEAN_MOTION_DDOT":0},{"OBJECT_NAME":"STARLINK-2236","OBJECT_ID":"2021-041AF","EPOCH":"2025-09-14T03:24:31.028256","MEAN_MOTION":15.06398605,"ECCENTRICITY":0.00015514,"INCLINATION":53.0562,"RA_OF_ASC_NODE":169.3388,"ARG_OF_PERICENTER":103.8457,"MEAN_ANOMALY":256.2705,"EPHEMERIS_TYPE":0,"CLASSIFICATION_TYPE":"U","NORAD_CAT_ID":48582,"ELEMENT_SET_NO":999,"REV_AT_EPOCH":23908,"BSTAR":8.3359761e-5,"MEAN_MOTION_DOT":9.6e-6,"MEAN_MOTION_DDOT":0},{"OBJECT_NAME":"STARLINK-2237","OBJECT_ID":"2021-041AG","EPOCH":"2025-09-14T03:31:47.042400","MEAN_MOTION":15.06400784,"ECCENTRICITY":0.00010755,"INCLINATION":53.0621,"RA_OF_ASC_NODE":214.1502,"ARG_OF_PERICENTER":89.4448,"MEAN_ANOMALY":270.6664,"EPHEMERIS_TYPE":0,"CLASSIFICATION_TYPE":"U","NORAD_CAT_ID":48583,"ELEMENT_SET_NO":999,"REV_AT_EPOCH":23845,"BSTAR":5.4463098e-5,"MEAN_MOTION_DOT":5.3e-6,"MEAN_MOTION_DDOT":0},{"OBJECT_NAME":"STARLINK-2238","OBJECT_ID":"2021-041AH","EPOCH":"2025-09-14T06:05:42.218304","MEAN_MOTION":15.0639932,"ECCENTRICITY":0.00015775,"INCLINATION":53.0529,"RA_OF_ASC_NODE":213.6665,"ARG_OF_PERICENTER":87.866,"MEAN_ANOMALY":272.251,"EPHEMERIS_TYPE":0,"CLASSIFICATION_TYPE":"U","NORAD_CAT_ID":48584,"ELEMENT_SET_NO":999,"REV_AT_EPOCH":23846,"BSTAR":4.98508e-5,"MEAN_MOTION_DOT":4.61e-6,"MEAN_MOTION_DDOT":0},{"OBJECT_NAME":"STARLINK-2241","OBJECT_ID":"2021-041AK","EPOCH":"2025-09-14T06:11:00.737952","MEAN_MOTION":15.06397532,"ECCENTRICITY":0.00015616,"INCLINATION":53.0515,"RA_OF_ASC_NODE":213.6498,"ARG_OF_PERICENTER":90.962,"MEAN_ANOMALY":269.1548,"EPHEMERIS_TYPE":0,"CLASSIFICATION_TYPE":"U","NORAD_CAT_ID":48586,"ELEMENT_SET_NO":999,"REV_AT_EPOCH":23846,"BSTAR":3.9103301e-5,"MEAN_MOTION_DOT":3.01e-6,"MEAN_MOTION_DDOT":0},{"OBJECT_NAME":"STARLINK-2245","OBJECT_ID":"2021-041AN","EPOCH":"2025-09-14T05:40:29.588448","MEAN_MOTION":15.06403439,"ECCENTRICITY":0.00014415,"INCLINATION":53.0544,"RA_OF_ASC_NODE":203.7457,"ARG_OF_PERICENTER":90.6785,"MEAN_ANOMALY":269.4369,"EPHEMERIS_TYPE":0,"CLASSIFICATION_TYPE":"U","NORAD_CAT_ID":48589,"ELEMENT_SET_NO":999,"REV_AT_EPOCH":23860,"BSTAR":0.0001115964,"MEAN_MOTION_DOT":1.381e-5,"MEAN_MOTION_DDOT":0},{"OBJECT_NAME":"STARLINK-2249","OBJECT_ID":"2021-041AR","EPOCH":"2025-09-14T04:24:54.208800","MEAN_MOTION":15.063992,"ECCENTRICITY":0.00012767,"INCLINATION":53.0483,"RA_OF_ASC_NODE":214.2157,"ARG_OF_PERICENTER":83.9147,"MEAN_ANOMALY":276.1987,"EPHEMERIS_TYPE":0,"CLASSIFICATION_TYPE":"U","NORAD_CAT_ID":48592,"ELEMENT_SET_NO":999,"REV_AT_EPOCH":23845,"BSTAR":1.0476259e-5,"MEAN_MOTION_DOT":-1.25e-6,"MEAN_MOTION_DDOT":0},{"OBJECT_NAME":"STARLINK-2250","OBJECT_ID":"2021-041AS","EPOCH":"2025-09-14T04:03:37.946016","MEAN_MOTION":15.06406969,"ECCENTRICITY":0.00014665,"INCLINATION":53.0551,"RA_OF_ASC_NODE":214.052,"ARG_OF_PERICENTER":87.0869,"MEAN_ANOMALY":273.0288,"EPHEMERIS_TYPE":0,"CLASSIFICATION_TYPE":"U","NORAD_CAT_ID":48593,"ELEMENT_SET_NO":999,"REV_AT_EPOCH":23845,"BSTAR":0.00013094368,"MEAN_MOTION_DOT":1.67e-5,"MEAN_MOTION_DDOT":0}]
